IRIDIUM 126             
1 42809U 17039G   25125.84003403  .00000020  00000+0 -71687-7 0  9998
2 42809  86.3997 163.9086 0002082  95.0681 265.0753 14.34217639411577
IRIDIUM 124             
1 42810U 17039H   25125.45639353  .00000641  00000+0  18442-3 0  9990
2 42810  86.4452 100.8376 0002554  93.1034 267.0459 14.43278739416302
IRIDIUM 128             
1 42811U 17039J   25125.62146692  .00000202  00000+0  65021-4 0  9998
2 42811  86.4025 195.4584 0002657 101.7941 258.3553 14.34217820411562
IRIDIUM 121             
1 42812U 17039K   25125.51021233  .00000310  00000+0  10355-3 0  9999
2 42812  86.3998 164.0710 0002476  92.3492 267.7987 14.34216337411511
IRIDIUM 133             
1 42955U 17061A   25125.51364275  .00000116  00000+0  34500-4 0  9991
2 42955  86.4028 195.6107 0002309  97.5279 262.6179 14.34217970396343
IRIDIUM 100             
1 42956U 17061B   25125.64683622  .00000230  00000+0  75035-4 0  9991
2 42956  86.4027 195.4836 0002246 101.1304 259.0145 14.34217629396389
IRIDIUM 122             
1 42957U 17061C   25125.47558698  .00000071  00000+0  18335-4 0  9990
2 42957  86.4028 195.5543 0002275  99.3097 260.8356 14.34217544396342
IRIDIUM 129             
1 42958U 17061D   25125.43118904  .00000012  00000+0 -26337-5 0  9997
2 42958  86.4030 195.6349 0001992  84.8787 275.2636 14.34217430396357
